NORAD_CAT_ID,OBJECT_NAME,OBJECT_TYPE,EPOCH,MEAN_MOTION,ECCENTRICITY,INCLINATION,RA_OF_ASC_NODE,ARG_OF_PERICENTER,MEAN_ANOMALY,BSTAR,MEAN_MOTION_DOT,MEAN_MOTION_DDOT,TLE_LINE0,TLE_LINE1,TLE_LINE2,SEMIMAJOR_AXIS,PERIOD,APOGEE,PERIGEE,DECAYED
50180.0,STARLINK-3265,PAYLOAD,2022-10-22 11:48:23,15.08843811,0.0002150999999999,53.2181,29.6579,39.1649,320.9498,-8.584700000000001e-06,-4.25e-06,0.0,0 STARLINK-3265,1 50180U 21125AA  22295.49193937 -.00000425  00000-0 -85847-5 0  9990,2 50180  53.2181  29.6579 0002151  39.1649 320.9498 15.08843811 47190,6917.869000000002,95.437,541.222,538.246,0.0
50180.0,STARLINK-3265,PAYLOAD,2022-10-22 16:34:32,15.08846319,0.0002188,53.218,28.7662,37.023,323.0913,1.6909e-05,-1.9e-07,0.0,0 STARLINK-3265,1 50180U 21125AA  22295.69065656 -.00000019  00000-0  16909-4 0  9998,2 50180  53.2180  28.7662 0002188  37.0230 323.0913 15.08846319 50359,6917.861,95.437,541.24,538.212,0.0
50180.0,STARLINK-3265,PAYLOAD,2022-10-23 11:39:09,15.088539,0.0002055,53.2181,25.1972,35.7646,324.3483,0.00014556,2.03e-05,0.0,0 STARLINK-3265,1 50180U 21125AA  22296.48552568  .00002030  00000-0  14556-3 0  9998,2 50180  53.2181  25.1972 0002055  35.7646 324.3483 15.08853900 47349,6917.8380000000025,95.437,541.125,538.281,0.0
50180.0,STARLINK-3265,PAYLOAD,2022-10-23 14:49:55,15.08855811,0.0002177999999999,53.2173,24.602,33.3438,326.7691,0.00020049,2.905e-05,0.0,0 STARLINK-3265,1 50180U 21125AA  22296.61800159  .00002905  00000-0  20049-3 0  9990,2 50180  53.2173  24.6020 0002178  33.3438 326.7691 15.08855811 50497,6917.831999999999,95.437,541.2040000000002,538.19,0.0
50180.0,STARLINK-3265,PAYLOAD,2022-10-24 05:08:23,15.08850317,0.0002489,53.2184,21.9263,41.8704,318.2478,8.9154e-05,1.131e-05,0.0,0 STARLINK-3265,1 50180U 21125AA  22297.21416593  .00001131  00000-0  89154-4 0  9995,2 50180  53.2184  21.9263 0002489  41.8704 318.2478 15.08850317 47450,6917.849,95.437,541.436,537.992,0.0
50180.0,STARLINK-3265,PAYLOAD,2022-10-24 09:54:33,15.08845966,0.0002366,53.2197,21.0357,47.5165,312.6027,5.3232e-05,5.59e-06,0.0,0 STARLINK-3265,1 50180U 21125AA  22297.41288893  .00000559  00000-0  53232-4 0  9998,2 50180  53.2197  21.0357 0002366  47.5165 312.6027 15.08845966 50611,6917.861999999999,95.437,541.364,538.09,0.0
50180.0,STARLINK-3265,PAYLOAD,2022-10-24 11:29:57,15.08831674,0.0001955,53.2184,20.7366,40.0432,320.0704,-6.573e-05,-1.334e-05,0.0,0 STARLINK-3265,1 50180U 21125AA  22297.47914064 -.00001334  00000-0 -65730-4 0  9990,2 50180  53.2184  20.7366 0001955  40.0432 320.0704 15.08831674 47499,6917.906,95.438,541.123,538.418,0.0
50180.0,STARLINK-3265,PAYLOAD,2022-10-24 14:40:45,15.08811624,0.0002443,53.2195,20.1466,40.9354,319.1821,-0.00020489,-3.545e-05,0.0,0 STARLINK-3265,1 50180U 21125AA  22297.61164058 -.00003545  00000-0 -20489-3 0  9993,2 50180  53.2195  20.1466 0002443  40.9354 319.1821 15.08811624 47516,6917.967,95.439,541.5219999999998,538.1419999999998,0.0
50180.0,STARLINK-3265,PAYLOAD,2022-10-25 04:59:14,15.08815054,0.0002239,53.2192,17.4648,34.4258,325.6879,-0.00016402,-2.896e-05,0.0,0 STARLINK-3265,1 50180U 21125AA  22298.20780362 -.00002896  00000-0 -16402-3 0  9999,2 50180  53.2192  17.4648 0002239  34.4258 325.6879 15.08815054 47604,6917.956999999999,95.439,541.371,538.273,0.0
50180.0,STARLINK-3265,PAYLOAD,2022-10-25 08:10:00,15.088243099999998,0.000212,53.2194,16.8731,34.4183,325.6946,-0.00016247,-2.872e-05,0.0,0 STARLINK-3265,1 50180U 21125AA  22298.34027838 -.00002872  00000-0 -16247-3 0  9997,2 50180  53.2194  16.8731 0002120  34.4183 325.6946 15.08824310 50758,6917.928000000001,95.439,541.26,538.327,0.0
50180.0,STARLINK-3265,PAYLOAD,2022-10-25 14:31:32,15.08834367,0.0002234,53.2189,15.6837,39.1258,320.9895,-0.00012383,-2.258e-05,0.0,0 STARLINK-3265,1 50180U 21125AA  22298.60523317 -.00002258  00000-0 -12383-3 0  9994,2 50180  53.2189  15.6837 0002234  39.1258 320.9895 15.08834367 50795,6917.898,95.438,541.308,538.217,0.0
50180.0,STARLINK-3265,PAYLOAD,2022-10-26 11:11:32,15.08833555,0.0002144,53.2187,11.817,36.2828,323.8309,0.0002218999999999,3.245e-05,0.0,0 STARLINK-3265,1 50180U 21125AA  22299.46634663  .00003245  00000-0  22190-3 0  9998,2 50180  53.2187  11.8170 0002144  36.2828 323.8309 15.08833555 50927,6917.9,95.438,541.248,538.2819999999998,0.0
50180.0,STARLINK-3265,PAYLOAD,2022-10-26 14:22:18,15.08837758,0.0002213,53.2187,11.2224,36.0365,324.0776,0.00022932,3.363e-05,0.0,0 STARLINK-3265,1 50180U 21125AA  22299.59882630  .00003363  00000-0  22932-3 0  9996,2 50180  53.2187  11.2224 0002213  36.0365 324.0776 15.08837758 50944,6917.887,95.438,541.283,538.221,0.0
50180.0,STARLINK-3265,PAYLOAD,2022-10-27 11:02:19,15.08849143,0.0002211999999999,53.218,7.3568,35.2772,324.8366,0.00029816,4.461e-05,0.0,0 STARLINK-3265,1 50180U 21125AA  22300.45994931  .00004461  00000-0  29816-3 0  9990,2 50180  53.2180   7.3568 0002212  35.2772 324.8366 15.08849143 51075,6917.852,95.437,541.248,538.187,0.0
50180.0,STARLINK-3265,PAYLOAD,2022-10-27 14:13:05,15.08852182,0.0002254,53.218,6.7620000000000005,39.0909,321.0246,0.00031795,4.777e-05,0.0,0 STARLINK-3265,1 50180U 21125AA  22300.59242759  .00004777  00000-0  31795-3 0  9998,2 50180  53.2180   6.7620 0002254  39.0909 321.0246 15.08852182 51092,6917.843000000003,95.437,541.2669999999998,538.149,0.0
50180.0,STARLINK-3265,PAYLOAD,2022-10-28 10:53:05,15.08857582,0.0002302,53.218,2.8962,36.999,323.1161,0.00014132,1.963e-05,0.0,0 STARLINK-3265,1 50180U 21125AA  22301.45353730  .00001963  00000-0  14132-3 0  9996,2 50180  53.2180   2.8962 0002302  36.9990 323.1161 15.08857582 51221,6917.8269999999975,95.436,541.284,538.099,0.0
50180.0,STARLINK-3265,PAYLOAD,2022-10-28 15:39:15,15.08851202,0.000231,53.2174,2.0041,38.3359,321.7797,4.133e-05,3.700000000000001e-06,0.0,0 STARLINK-3265,1 50180U 21125AA  22301.65225857  .00000370  00000-0  41330-4 0  9998,2 50180  53.2174   2.0041 0002310  38.3359 321.7797 15.08851202 51253,6917.846,95.437,541.309,538.113,0.0
50180.0,STARLINK-3265,PAYLOAD,2022-10-29 07:33:06,15.0884647,0.0002248,53.2184,359.03,36.6238,323.4908,1.0429e-05,-1.22e-06,0.0,0 STARLINK-3265,1 50180U 21125AA  22302.31465814 -.00000122  00000-0  10429-4 0  9992,2 50180  53.2184 359.0300 0002248  36.6238 323.4908 15.08846470 48221,6917.861,95.437,541.281,538.17,0.0
50180.0,STARLINK-3265,PAYLOAD,2022-10-29 09:08:29,15.08842809,0.0002303,53.218,358.7329,35.2244,324.89,-1.5349e-05,-5.33e-06,0.0,0 STARLINK-3265,1 50180U 21125AA  22302.38090077 -.00000533  00000-0 -15349-4 0  9997,2 50180  53.2180 358.7329 0002303  35.2244 324.8900 15.08842809 51366,6917.871999999999,95.437,541.33,538.144,0.0
50180.0,STARLINK-3265,PAYLOAD,2022-10-29 15:30:01,15.08846917,0.0002299999999999,53.2184,357.5434,35.0245,325.0898,-8.7302e-06,-4.27e-06,0.0,0 STARLINK-3265,1 50180U 21125AA  22302.64585569 -.00000427  00000-0 -87302-5 0  9992,2 50180  53.2184 357.5434 0002300  35.0245 325.0898 15.08846917 51408,6917.859,95.437,541.315,538.133,0.0
50180.0,STARLINK-3265,PAYLOAD,2022-10-30 10:34:38,15.0885771,0.0002163,53.2184,353.9752,36.6302,323.4838,-4.0863e-07,-2.95e-06,0.0,0 STARLINK-3265,1 50180U 21125AA  22303.44072416 -.00000295  00000-0 -40863-6 0  9998,2 50180  53.2184 353.9752 0002163  36.6302 323.4838 15.08857710 51521,6917.826,95.436,541.188,538.195,0.0
50180.0,STARLINK-3265,PAYLOAD,2022-10-30 12:10:02,15.08850063,0.0002348,53.2178,353.6787,33.7381,326.376,2.0671e-05,4.1e-07,0.0,0 STARLINK-3265,1 50180U 21125AA  22303.50696846  .00000041  00000-0  20671-4 0  9994,2 50180  53.2178 353.6787 0002348  33.7381 326.3760 15.08850063 51530,6917.85,95.437,541.339,538.09,0.0
50180.0,STARLINK-3265,PAYLOAD,2022-10-31 10:25:28,15.08823572,0.0002201,53.2181,349.5146,33.7864,326.3268,-4.6807e-05,-1.033e-05,0.0,0 STARLINK-3265,1 50180U 21125AA  22304.43435211 -.00001033  00000-0 -46807-4 0  9997,2 50180  53.2181 349.5146 0002201  33.7864 326.3268 15.08823572 51674,6917.931,95.439,541.318,538.273,0.0
50180.0,STARLINK-3265,PAYLOAD,2022-10-31 12:00:51,15.08824886,0.0002328,53.219,349.2186,36.9371,323.1781,-9.6884e-05,-1.829e-05,0.0,0 STARLINK-3265,1 50180U 21125AA  22304.50059400 -.00001829  00000-0 -96884-4 0  9990,2 50180  53.2190 349.2186 0002328  36.9371 323.1781 15.08824886 48550,6917.927,95.439,541.4019999999998,538.181,0.0
50180.0,STARLINK-3265,PAYLOAD,2022-11-01 02:19:18,15.08838656,0.0002262,53.218,346.5409,32.3903,327.7227,1.3667e-05,-7.1e-07,0.0,0 STARLINK-3265,1 50180U 21125AA  22305.09674476 -.00000071  00000-0  13667-4 0  9996,2 50180  53.2180 346.5409 0002262  32.3903 327.7227 15.08838656 48640,6917.884,95.438,541.314,538.185,0.0
50180.0,STARLINK-3265,PAYLOAD,2022-11-01 11:51:37,15.08837645,0.000233,53.2175,344.7556,30.4859,329.6269,1.0846e-06,-2.71e-06,0.0,0 STARLINK-3265,1 50180U 21125AA  22305.49418815 -.00000271  00000-0  10846-5 0  9992,2 50180  53.2175 344.7556 0002330  30.4859 329.6269 15.08837645 51831,6917.888000000001,95.438,541.364,538.141,0.0
50180.0,STARLINK-3265,PAYLOAD,2022-11-02 11:42:25,15.08829977,0.0002157,53.2183,340.2964,33.4413,326.6715,0.00014951,2.091e-05,0.0,0 STARLINK-3265,1 50180U 21125AA  22306.48779511  .00002091  00000-0  14951-3 0  9995,2 50180  53.2183 340.2964 0002157  33.4413 326.6715 15.08829977 48850,6917.911,95.438,541.268,538.284,0.0
50180.0,STARLINK-3265,PAYLOAD,2022-11-02 19:39:21,15.08830987,0.0002243,53.2178,338.8088,31.6011,328.5115,0.00013773,1.904e-05,0.0,0 STARLINK-3265,1 50180U 21125AA  22306.81899711  .00001904  00000-0  13773-3 0  9990,2 50180  53.2178 338.8088 0002243  31.6011 328.5115 15.08830987 52037,6917.908,95.438,541.325,538.221,0.0
50180.0,STARLINK-3265,PAYLOAD,2022-11-03 11:33:12,15.08841642,0.0002161,53.2177,335.8347,35.1054,325.008,0.00014639,2.042e-05,0.0,0 STARLINK-3265,1 50180U 21125AA  22307.48139187  .00002042  00000-0  14639-3 0  9994,2 50180  53.2177 335.8347 0002161  35.1054 325.0080 15.08841642 49002,6917.875,95.437,541.235,538.245,0.0
